#aV2006  4 11  0  0   .00000000      96 DD+AD WGS84 FIT  NGA
## 1370 172800.00000000   900.00000000 53836  .0000000000000
+   29     1  2  3  4  5  6  7  8  9 10 11 13 14 15 16 17 18
+         19 20 21 22 23 24 25 26 27 28 29 30  0  0  0  0  0
+          0  0  0  0  0  0  0  0  0  0  0  0  0  0  0  0  0
+          0  0  0  0  0  0  0  0  0  0  0  0  0  0  0  0  0
+          0  0  0  0  0  0  0  0  0  0  0  0  0  0  0  0  0
++         0  0  0  0  0  0  0  0  0  0  0  0  0  0  0  0  0
++         0  0  0  0  0  0  0  0  0  0  0  0  0  0  0  0  0
++         0  0  0  0  0  0  0  0  0  0  0  0  0  0  0  0  0
++         0  0  0  0  0  0  0  0  0  0  0  0  0  0  0  0  0
++         0  0  0  0  0  0  0  0  0  0  0  0  0  0  0  0  0
%c cc cc ccc ccc cccc cccc cccc cccc ccccc ccccc ccccc ccccc
%c cc cc ccc ccc cccc cccc cccc cccc ccccc ccccc ccccc ccccc
%f  0.0000000  0.000000000  0.00000000000  0.000000000000000
%f  0.0000000  0.000000000  0.00000000000  0.000000000000000
%i    0    0    0    0      0      0      0      0         0
%i    0    0    0    0      0      0      0      0         0
/*      NGA, ST. LOUIS,MO.                                  
/*   EPHEMERIS COMPUTED FROM  3 DAYS OF DATA                
/* CCCCCCCCCCCCCCCCCCCCCCCCCCCCCCCCCCCCCCCCCCCCCCCCCCCCCCCCC
/* CCCCCCCCCCCCCCCCCCCCCCCCCCCCCCCCCCCCCCCCCCCCCCCCCCCCCCCCC
*  2006  4 11 10  0   .00000000                                                 
P  1  21205.710166  16021.120339   -379.694382     46.446315                    
V  1   -608.306615   1967.638995  32306.223383       .020432                    
P  2 -13143.084836 -12225.573468 -19904.887953     -9.730707                    
V  2   3399.287181 -24459.067173  12763.535990       .021781                    
P  3  24170.303437  10614.947551   3995.904890     89.403268                    
V  3   2737.561669   5734.221109 -30241.275096       .032362                    
P  4  -7538.632147 -21237.261674 -13806.641303    201.957982                    
V  4   4621.149840 -17230.186302  24388.340575       .102164                    
P  5 -22600.284753  13731.613873  -1284.336757   -181.474219                    
V  5  -3036.147596  -2527.144428  31285.691946       .673141                    
P  6  -7547.123802  13799.392436 -21204.354251    464.708037                    
V  6 -23032.083172 -15009.280614  -1633.697046       .238002                    
P  7  12123.454486  19202.866288 -13351.200518    526.680241                    
V  7 -16496.168231  -6806.556371 -24323.887818       .044939                    
P  8   -683.625520 -25602.663076   6040.570067    -62.269774                    
V  8   3763.228136  -7496.484915 -31010.948906      -.010180                    
P  9 -14071.690767  10686.093207  19198.709530     15.598882                    
V  9    -98.179830 -25693.498709  14125.062356       .015299                    
P 10 -22465.396490  -1006.777935 -14470.628446     81.606621                    
V 10  15962.205684  -8596.176941 -24035.237487       .005342                    
P 11  14160.573076 -12502.542411  18519.629772    319.772067                    
V 11   3473.723760  23850.997294  13644.822262       .026479                    
P 13   5332.756675 -13988.956745 -22025.386824     53.767849                    
V 13  22316.446164  16374.103108  -4955.414968       .027166                    
P 14  12443.654780  19646.914256  12938.912693    -16.167757                    
V 14 -14081.241848  -8284.633661  26213.293431       .007391                    
P 15   -245.556347  25667.570920   5799.323044    594.830790                    
V 15  -4430.991444   7015.786579 -30759.692103       .061149                    
P 16  18283.423772   5814.937728 -18322.390694     36.154400                    
V 16 -20768.346975  10892.049057 -17086.689206       .022154                    
P 17 -11283.803428 -19788.114363  13719.249547     81.002667                    
V 17  15426.469496   8348.842843  24613.445781       .047772                    
P 18 -11615.463235  17206.090098  16489.919668   -230.257262                    
V 18 -20125.196549   5946.876926 -20793.088216      -.018165                    
P 19  21224.762576   2800.101129  15848.875982    -15.674541                    
V 19  14315.379430  13993.023469 -21747.055015       .014759                    
P 20  22969.909388 -13001.084920  -2896.066394    -28.843721                    
V 20   4467.324436   1123.012880  31429.315902       .007364                    
P 21  -5650.283814  25470.831204  -3073.970709     20.557943                    
V 21  -3217.492069  -4497.620322 -31382.337782       .029314                    
P 22   2809.982386  15335.881735  21654.947044     84.473395                    
V 22 -25370.988810   9683.175667  -3593.468933       .036854                    
P 23  16448.091566  -5434.404838 -20267.498258    144.371331                    
V 23  20263.676190  15452.316382  12205.194331      -.010715                    
P 24   2384.837051 -26213.602355  -2064.154565     99.886507                    
V 24   3448.980598  -2449.778595  31767.804034       .029971                    
P 25  10892.189935  18310.514049 -15377.574884      8.465449                    
V 25  -2377.881786  20322.720048  22067.509911       .077517                    
P 26 -22547.806274  -6562.331689  12591.066440    -83.550318                    
V 26 -12330.666854 -10787.769074 -26319.836797      -.104721                    
P 27   3383.234073 -25821.741259  -3576.960524     43.825273                    
V 27   3062.490162   5434.814022 -31469.579479       .016921                    
P 28    551.609419 -16367.782400  21126.835872     29.713386                    
V 28  24418.769058  -9679.191320  -8588.937378      -.006730                    
P 29 -23439.183583  -8317.188708   9940.353756    582.849144                    
V 29  -9104.391099  -8191.810309 -28761.702444       .085083                    
P 30 -16681.568533  17442.882361 -11233.115178    127.493532                    
V 30 -13735.665977   3664.817030  26866.374757       .533661                    
EOF
